{"type": "FeatureCollection", "features": [ {"type": "Feature", "properties": {"norad_id": 66613, "name": "STARLINK-36037", "group": "last-30-days", "lat": 22.828911054578153, "lon": -94.56646170080157, "alt_km": 330.8695261679959, "timestamp": "2025-12-04T23:34:04.492049+00:00", "meta": {"OBJECT_NAME": "STARLINK-36037", "OBJECT_ID": "2025-270AB", "EPOCH": "2025-12-03T10:57:19.045152", "MEAN_MOTION": 15.77412165, "ECCENTRICITY": 0.0004122, "INCLINATION": 43.0001, "RA_OF_ASC_NODE": 247.8703, "ARG_OF_PERICENTER": 349.4174, "MEAN_ANOMALY": 10.6608, "EPHEMERIS_TYPE": 0, "CLASSIFICATION_TYPE": "U", "NORAD_CAT_ID": 66613, "ELEMENT_SET_NO": 999, "REV_AT_EPOCH": 289, "BSTAR": 0.00072767216, "MEAN_MOTION_DOT": 0.00125531, "MEAN_MOTION_DDOT": 0}, "tle": {"line1": "1 66613U 25270AB  25337.45647043  .00125531  00000+0  72767-3 0  9999", "line2": "2 66613  43.0001 247.8703 0004122 349.4174  10.6608 15.77412165  2893"}}, "geometry": {"type": "Point", "coordinates": [-94.56646170080157, 22.828911054578153]}}, {"type": "Feature", "properties": {"norad_id": 66614, "name": "STARLINK-36040", "group": "last-30-days", "lat": 17.540109459278483, "lon": -101.56708491489927, "alt_km": 341.01180213033604, "timestamp": "2025-12-04T23:34:04.492059+00:00", "meta": {"OBJECT_NAME": "STARLINK-36040", "OBJECT_ID": "2025-270AC", "EPOCH": "2025-12-04T15:51:01.032768", "MEAN_MOTION": 15.75376134, "ECCENTRICITY": 0.000319, "INCLINATION": 42.9982, "RA_OF_ASC_NODE": 240.5572, "ARG_OF_PERICENTER": 243.2754, "MEAN_ANOMALY": 116.7789, "EPHEMERIS_TYPE": 0, "CLASSIFICATION_TYPE": "U", "NORAD_CAT_ID": 66614, "ELEMENT_SET_NO": 999, "REV_AT_EPOCH": 292, "BSTAR": 0.0047436, "MEAN_MOTION_DOT": 0.00814786, "MEAN_MOTION_DDOT": 0}, "tle": {"line1": "1 66614U 25270AC  25338.66042862  .00814786  00000+0  47436-2 0  9993", "line2": "2 66614  42.9982 240.5572 0003190 243.2754 116.7789 15.75376134  2928"}}, "geometry": {"type": "Point", "coordinates": [-101.56708491489927, 17.540109459278483]}}, {"type": "Feature", "properties": {"norad_id": 66615, "name": "STARLINK-35988", "group": "last-30-days", "lat": 24.40290360378322, "lon": -92.28944827930842, "alt_km": 335.4058194892914, "timestamp": "2025-12-04T23:34:04.492072+00:00", "meta": {"OBJECT_NAME": "STARLINK-35988", "OBJECT_ID": "2025-270AD", "EPOCH": "2025-12-04T00:37:22.745280", "MEAN_MOTION": 15.77540776, "ECCENTRICITY": 0.0012646, "INCLINATION": 42.9993, "RA_OF_ASC_NODE": 244.4008, "ARG_OF_PERICENTER": 273.4991, "MEAN_ANOMALY": 86.4432, "EPHEMERIS_TYPE": 0, "CLASSIFICATION_TYPE": "U", "NORAD_CAT_ID": 66615, "ELEMENT_SET_NO": 999, "REV_AT_EPOCH": 282, "BSTAR": 0.0020154804, "MEAN_MOTION_DOT": 0.00361862, "MEAN_MOTION_DDOT": 0}, "tle": {"line1": "1 66615U 25270AD  25338.02595770  .00361862  00000+0  20155-2 0  9996", "line2": "2 66615  42.9993 244.4008 0012646 273.4991  86.4432 15.77540776  2826"}}, "geometry": {"type": "Point", "coordinates": [-92.28944827930842, 24.40290360378322]}}, {"type": "Feature", "properties": {"norad_id": 66616, "name": "STARLINK-35391", "group": "last-30-days", "lat": 18.678280970982655, "lon": -100.12511015304875, "alt_km": 341.0671959854426, "timestamp": "2025-12-04T23:34:04.492083+00:00", "meta": {"OBJECT_NAME": "STARLINK-35391", "OBJECT_ID": "2025-270AE", "EPOCH": "2025-12-04T15:50:31.921152", "MEAN_MOTION": 15.75307579, "ECCENTRICITY": 0.0002796, "INCLINATION": 42.9976, "RA_OF_ASC_NODE": 240.5563, "ARG_OF_PERICENTER": 246.6155, "MEAN_ANOMALY": 113.4421, "EPHEMERIS_TYPE": 0, "CLASSIFICATION_TYPE": "U", "NORAD_CAT_ID": 66616, "ELEMENT_SET_NO": 999, "REV_AT_EPOCH": 319, "BSTAR": 0.0038519, "MEAN_MOTION_DOT": 0.00646333, "MEAN_MOTION_DDOT": 0}, "tle": {"line1": "1 66616U 25270AE  25338.66009168  .00646333  00000+0  38519-2 0  9990", "line2": "2 66616  42.9976 240.5563 0002796 246.6155 113.4421 15.75307579  3190"}}, "geometry": {"type": "Point", "coordinates": [-100.12511015304875, 18.678280970982655]}}, {"type": "Feature", "properties": {"norad_id": 66617, "name": "STARLINK-35940", "group": "last-30-days", "lat": -49.68160844664473, "lon": 107.3305869540771, "alt_km": 332.64552045366054, "timestamp": "2025-12-04T23:34:04.492093+00:00", "meta": {"OBJECT_NAME": "STARLINK-35940", "OBJECT_ID": "2025-271A", "EPOCH": "2025-12-04T07:20:17.054880", "MEAN_MOTION": 15.8184412, "ECCENTRICITY": 6.78e-05, "INCLINATION": 53.1574, "RA_OF_ASC_NODE": 228.6482, "ARG_OF_PERICENTER": 40.0862, "MEAN_ANOMALY": 320.0211, "EPHEMERIS_TYPE": 0, "CLASSIFICATION_TYPE": "U", "NORAD_CAT_ID": 66617, "ELEMENT_SET_NO": 999, "REV_AT_EPOCH": 288, "BSTAR": -0.0029443, "MEAN_MOTION_DOT": -0.00570206, "MEAN_MOTION_DDOT": 0}, "tle": {"line1": "1 66617U 25271A   25338.30575295 -.00570206  00000+0 -29443-2 0  9995", "line2": "2 66617  53.1574 228.6482 0000678  40.0862 320.0211 15.81844120  2887"}}, "geometry": {"type": "Point", "coordinates": [107.3305869540771, -49.68160844664473]}}, {"type": "Feature", "properties": {"norad_id": 66618, "name": "STARLINK-35970", "group": "last-30-days", "lat": -32.847140459248116, "lon": -163.83562087542492, "alt_km": 342.26642669624835, "timestamp": "2025-12-04T23:34:04.492106+00:00", "meta": {"OBJECT_NAME": "STARLINK-35970", "OBJECT_ID": "2025-271B", "EPOCH": "2025-12-04T16:08:47.378112", "MEAN_MOTION": 15.78027581, "ECCENTRICITY": 2.4e-05, "INCLINATION": 53.1563, "RA_OF_ASC_NODE": 226.6615, "ARG_OF_PERICENTER": 190.966, "MEAN_ANOMALY": 169.1356, "EPHEMERIS_TYPE": 0, "CLASSIFICATION_TYPE": "U", "NORAD_CAT_ID": 66618, "ELEMENT_SET_NO": 999, "REV_AT_EPOCH": 294, "BSTAR": -0.0069931, "MEAN_MOTION_DOT": -0.0108913, "MEAN_MOTION_DDOT": 0}, "tle": {"line1": "1 66618U 25271B   25338.67277058 -.01089130  00000+0 -69931-2 0  9990", "line2": "2 66618  53.1563 226.6615 0000240 190.9660 169.1356 15.78027581  2947"}}, "geometry": {"type": "Point", "coordinates": [-163.83562087542492, -32.847140459248116]}}, {"type": "Feature", "properties": {"norad_id": 66619, "name": "STARLINK-35951", "group": "last-30-days", "lat": -52.04354572618002, "lon": 119.23377616635172, "alt_km": 330.06051904828473, "timestamp": "2025-12-04T23:34:04.492116+00:00", "meta": {"OBJECT_NAME": "STARLINK-35951", "OBJECT_ID": "2025-271C", "EPOCH": "2025-12-04T16:24:17.728128", "MEAN_MOTION": 15.81164298, "ECCENTRICITY": 0.0003985, "INCLINATION": 53.1566, "RA_OF_ASC_NODE": 226.7354, "ARG_OF_PERICENTER": 184.8353, "MEAN_ANOMALY": 175.2632, "EPHEMERIS_TYPE": 0, "CLASSIFICATION_TYPE": "U", "NORAD_CAT_ID": 66619, "ELEMENT_SET_NO": 999, "REV_AT_EPOCH": 294, "BSTAR": 0.0031545, "MEAN_MOTION_DOT": 0.00682668, "MEAN_MOTION_DDOT": 0}, "tle": {"line1": "1 66619U 25271C   25338.68353852  .00682668  00000+0  31545-2 0  9991", "line2": "2 66619  53.1566 226.7354 0003985 184.8353 175.2632 15.81164298  2948"}}, "geometry": {"type": "Point", "coordinates": [119.23377616635172, -52.04354572618002]}}, {"type": "Feature", "properties": {"norad_id": 66620, "name": "STARLINK-35936", "group": "last-30-days", "lat": -49.94478086048145, "lon": 108.36117521390085, "alt_km": 332.0361703920653, "timestamp": "2025-12-04T23:34:04.492127+00:00", "meta": {"OBJECT_NAME": "STARLINK-35936", "OBJECT_ID": "2025-271D", "EPOCH": "2025-12-04T16:25:56.974080", "MEAN_MOTION": 15.80825701, "ECCENTRICITY": 0.0002899, "INCLINATION": 53.157, "RA_OF_ASC_NODE": 226.7449, "ARG_OF_PERICENTER": 194.5504, "MEAN_ANOMALY": 165.5436, "EPHEMERIS_TYPE": 0, "CLASSIFICATION_TYPE": "U", "NORAD_CAT_ID": 66620, "ELEMENT_SET_NO": 999, "REV_AT_EPOCH": 294, "BSTAR": -0.00072034, "MEAN_MOTION_DOT": -0.00140336, "MEAN_MOTION_DDOT": 0}, "tle": {"line1": "1 66620U 25271D   25338.68468720 -.00140336  00000+0 -72034-3 0  9996", "line2": "2 66620  53.1570 226.7449 0002899 194.5504 165.5436 15.80825701  2945"}}, "geometry": {"type": "Point", "coordinates": [108.36117521390085, -49.94478086048145]}}, {"type": "Feature", "properties": {"norad_id": 66621, "name": "STARLINK-35847", "group": "last-30-days", "lat": -26.31096440946919, "lon": -156.66412585122427, "alt_km": 337.56662943083757, "timestamp": "2025-12-04T23:34:04.492137+00:00", "meta": {"OBJECT_NAME": "STARLINK-35847", "OBJECT_ID": "2025-271E", "EPOCH": "2025-12-04T05:29:14.400096", "MEAN_MOTION": 15.80119551, "ECCENTRICITY": 8.3e-05, "INCLINATION": 53.1563, "RA_OF_ASC_NODE": 228.8686, "ARG_OF_PERICENTER": 162.0892, "MEAN_ANOMALY": 198.016, "EPHEMERIS_TYPE": 0, "CLASSIFICATION_TYPE": "U", "NORAD_CAT_ID": 66621, "ELEMENT_SET_NO": 999, "REV_AT_EPOCH": 287, "BSTAR": -0.0041389, "MEAN_MOTION_DOT": -0.00726477, "MEAN_MOTION_DDOT": 0}, "tle": {"line1": "1 66621U 25271E   25338.22863889 -.00726477  00000+0 -41389-2 0  9996", "line2": "2 66621  53.1563 228.8686 0000830 162.0892 198.0160 15.80119551  2873"}}, "geometry": {"type": "Point", "coordinates": [-156.66412585122427, -26.31096440946919]}}, {"type": "Feature", "properties": {"norad_id": 66622, "name": "STARLINK-35950", "group": "last-30-days", "lat": -52.687422417552696, "lon": 124.91236672017756, "alt_km": 331.9804869727086, "timestamp": "2025-12-04T23:34:04.492167+00:00", "meta": {"OBJECT_NAME": "STARLINK-35950", "OBJECT_ID": "2025-271F", "EPOCH": "2025-12-04T07:17:24.781920", "MEAN_MOTION": 15.81843167, "ECCENTRICITY": 3.92e-05, "INCLINATION": 53.157, "RA_OF_ASC_NODE": 228.6341, "ARG_OF_PERICENTER": 311.7184, "MEAN_ANOMALY": 48.3805, "EPHEMERIS_TYPE": 0, "CLASSIFICATION_TYPE": "U", "NORAD_CAT_ID": 66622, "ELEMENT_SET_NO": 999, "REV_AT_EPOCH": 288, "BSTAR": -0.0027019, "MEAN_MOTION_DOT": -0.00525909, "MEAN_MOTION_DDOT": 0}, "tle": {"line1": "1 66622U 25271F   25338.30375905 -.00525909  00000+0 -27019-2 0  9994", "line2": "2 66622  53.1570 228.6341 0000392 311.7184  48.3805 15.81843167  2880"}}, "geometry": {"type": "Point", "coordinates": [124.91236672017756, -52.687422417552696]}}]}